<?xml version="1.0" encoding="UTF-8"?>
<gpx creator="Sauce for Strava™" version="1.1" xmlns="http://www.topografix.com/GPX/1/1" xmlns:gpx3="http://www.garmin.com/xmlschemas/GpxExtensions/v3" xmlns:tpx1="http://www.garmin.com/xmlschemas/TrackPointExtension/v1" xmlns:xsi="http://www.w3.org/2001/XMLSchema-instance" xsi:schemaLocation="http://www.topografix.com/GPX/1/1 http://www.topografix.com/GPX/1/1/gpx.xsd http://www.garmin.com/xmlschemas/GpxExtensions/v3 https://www8.garmin.com/xmlschemas/GpxExtensionsv3.xsd http://www.garmin.com/xmlschemas/TrackPointExtension/v1 https://www8.garmin.com/xmlschemas/TrackPointExtensionv1.xsd"><metadata><time>2026-04-26T15:02:28.000Z</time></metadata><trk><name>LBL 🏆  #team [selection 18092-18318]</name><type>cycling</type><trkseg><trkpt lat="50.483719" lon="5.703475"><time>2026-04-26T15:02:28.000Z</time><ele>135.7</ele><extensions><tpx1:TrackPointExtension><tpx1:atemp>18</tpx1:atemp><tpx1:cad>110</tpx1:cad></tpx1:TrackPointExtension></extensions></trkpt><trkpt lat="50.483798" lon="5.703408"><time>2026-04-26T15:02:29.000Z</time><ele>136.5</ele><extensions><tpx1:TrackPointExtension><tpx1:atemp>18</tpx1:atemp><tpx1:cad>105</tpx1:cad></tpx1:TrackPointExtension></extensions></trkpt><trkpt lat="50.483872" lon="5.703337"><time>2026-04-26T15:02:30.000Z</time><ele>137.4</ele><extensions><tpx1:TrackPointExtension><tpx1:atemp>18</tpx1:atemp><tpx1:cad>115</tpx1:cad></tpx1:TrackPointExtension></extensions></trkpt><trkpt lat="50.483943" lon="5.703275"><time>2026-04-26T15:02:31.000Z</time><ele>138.2</ele><extensions><tpx1:TrackPointExtension><tpx1:atemp>18</tpx1:atemp><tpx1:cad>115</tpx1:cad></tpx1:TrackPointExtension></extensions></trkpt><trkpt lat="50.484021" lon="5.703228"><time>2026-04-26T15:02:32.000Z</time><ele>139.1</ele><extensions><tpx1:TrackPointExtension><tpx1:atemp>18</tpx1:atemp><tpx1:cad>115</tpx1:cad></tpx1:TrackPointExtension></extensions></trkpt><trkpt lat="50.484104" lon="5.703204"><time>2026-04-26T15:02:33.000Z</time><ele>139.8</ele><extensions><tpx1:TrackPointExtension><tpx1:atemp>18</tpx1:atemp><tpx1:cad>113</tpx1:cad></tpx1:TrackPointExtension></extensions></trkpt><trkpt lat="50.484186" lon="5.7032"><time>2026-04-26T15:02:34.000Z</time><ele>140.5</ele><extensions><tpx1:TrackPointExtension><tpx1:atemp>18</tpx1:atemp><tpx1:cad>111</tpx1:cad></tpx1:TrackPointExtension></extensions></trkpt><trkpt lat="50.484268" lon="5.703208"><time>2026-04-26T15:02:35.000Z</time><ele>141.2</ele><extensions><tpx1:TrackPointExtension><tpx1:atemp>18</tpx1:atemp><tpx1:cad>109</tpx1:cad></tpx1:TrackPointExtension></extensions></trkpt><trkpt lat="50.484348" lon="5.703223"><time>2026-04-26T15:02:36.000Z</time><ele>141.7</ele><extensions><tpx1:TrackPointExtension><tpx1:atemp>18</tpx1:atemp><tpx1:cad>110</tpx1:cad></tpx1:TrackPointExtension></extensions></trkpt><trkpt lat="50.484428" lon="5.703239"><time>2026-04-26T15:02:37.000Z</time><ele>142.2</ele><extensions><tpx1:TrackPointExtension><tpx1:atemp>18</tpx1:atemp><tpx1:cad>113</tpx1:cad></tpx1:TrackPointExtension></extensions></trkpt><trkpt lat="50.484512" lon="5.703256"><time>2026-04-26T15:02:38.000Z</time><ele>142.7</ele><extensions><tpx1:TrackPointExtension><tpx1:atemp>18</tpx1:atemp><tpx1:cad>115</tpx1:cad></tpx1:TrackPointExtension></extensions></trkpt><trkpt lat="50.484598" lon="5.703276"><time>2026-04-26T15:02:39.000Z</time><ele>143.3</ele><extensions><tpx1:TrackPointExtension><tpx1:atemp>18</tpx1:atemp><tpx1:cad>115</tpx1:cad></tpx1:TrackPointExtension></extensions></trkpt><trkpt lat="50.48468" lon="5.703295"><time>2026-04-26T15:02:40.000Z</time><ele>143.9</ele><extensions><tpx1:TrackPointExtension><tpx1:atemp>18</tpx1:atemp><tpx1:cad>100</tpx1:cad></tpx1:TrackPointExtension></extensions></trkpt><trkpt lat="50.484762" lon="5.703314"><time>2026-04-26T15:02:41.000Z</time><ele>144.4</ele><extensions><tpx1:TrackPointExtension><tpx1:atemp>18</tpx1:atemp><tpx1:cad>99</tpx1:cad></tpx1:TrackPointExtension></extensions></trkpt><trkpt lat="50.484847" lon="5.703334"><time>2026-04-26T15:02:42.000Z</time><ele>145.1</ele><extensions><tpx1:TrackPointExtension><tpx1:atemp>18</tpx1:atemp><tpx1:cad>100</tpx1:cad></tpx1:TrackPointExtension></extensions></trkpt><trkpt lat="50.484931" lon="5.703355"><time>2026-04-26T15:02:43.000Z</time><ele>145.7</ele><extensions><tpx1:TrackPointExtension><tpx1:atemp>18</tpx1:atemp><tpx1:cad>100</tpx1:cad></tpx1:TrackPointExtension></extensions></trkpt><trkpt lat="50.485014" lon="5.703377"><time>2026-04-26T15:02:44.000Z</time><ele>146.3</ele><extensions><tpx1:TrackPointExtension><tpx1:atemp>18</tpx1:atemp><tpx1:cad>100</tpx1:cad></tpx1:TrackPointExtension></extensions></trkpt><trkpt lat="50.485097" lon="5.703398"><time>2026-04-26T15:02:45.000Z</time><ele>147</ele><extensions><tpx1:TrackPointExtension><tpx1:atemp>18</tpx1:atemp><tpx1:cad>98</tpx1:cad></tpx1:TrackPointExtension></extensions></trkpt><trkpt lat="50.485176" lon="5.703415"><time>2026-04-26T15:02:46.000Z</time><ele>147.9</ele><extensions><tpx1:TrackPointExtension><tpx1:atemp>18</tpx1:atemp><tpx1:cad>96</tpx1:cad></tpx1:TrackPointExtension></extensions></trkpt><trkpt lat="50.48525" lon="5.703427"><time>2026-04-26T15:02:47.000Z</time><ele>148.7</ele><extensions><tpx1:TrackPointExtension><tpx1:atemp>18</tpx1:atemp><tpx1:cad>95</tpx1:cad></tpx1:TrackPointExtension></extensions></trkpt><trkpt lat="50.485326" lon="5.703435"><time>2026-04-26T15:02:48.000Z</time><ele>149.7</ele><extensions><tpx1:TrackPointExtension><tpx1:atemp>18</tpx1:atemp><tpx1:cad>124</tpx1:cad></tpx1:TrackPointExtension></extensions></trkpt><trkpt lat="50.485404" lon="5.703438"><time>2026-04-26T15:02:49.000Z</time><ele>150.8</ele><extensions><tpx1:TrackPointExtension><tpx1:atemp>18</tpx1:atemp><tpx1:cad>108</tpx1:cad></tpx1:TrackPointExtension></extensions></trkpt><trkpt lat="50.485477" lon="5.703428"><time>2026-04-26T15:02:50.000Z</time><ele>151.5</ele><extensions><tpx1:TrackPointExtension><tpx1:atemp>18</tpx1:atemp><tpx1:cad>106</tpx1:cad></tpx1:TrackPointExtension></extensions></trkpt><trkpt lat="50.485543" lon="5.703408"><time>2026-04-26T15:02:51.000Z</time><ele>151.8</ele><extensions><tpx1:TrackPointExtension><tpx1:atemp>18</tpx1:atemp><tpx1:cad>103</tpx1:cad></tpx1:TrackPointExtension></extensions></trkpt><trkpt lat="50.485605" lon="5.703379"><time>2026-04-26T15:02:52.000Z</time><ele>152.7</ele><extensions><tpx1:TrackPointExtension><tpx1:atemp>18</tpx1:atemp><tpx1:cad>101</tpx1:cad></tpx1:TrackPointExtension></extensions></trkpt><trkpt lat="50.485668" lon="5.703341"><time>2026-04-26T15:02:53.000Z</time><ele>153.6</ele><extensions><tpx1:TrackPointExtension><tpx1:atemp>18</tpx1:atemp><tpx1:cad>99</tpx1:cad></tpx1:TrackPointExtension></extensions></trkpt><trkpt lat="50.485727" lon="5.703301"><time>2026-04-26T15:02:54.000Z</time><ele>154.4</ele><extensions><tpx1:TrackPointExtension><tpx1:atemp>18</tpx1:atemp><tpx1:cad>99</tpx1:cad></tpx1:TrackPointExtension></extensions></trkpt><trkpt lat="50.485784" lon="5.703261"><time>2026-04-26T15:02:55.000Z</time><ele>155.2</ele><extensions><tpx1:TrackPointExtension><tpx1:atemp>18</tpx1:atemp><tpx1:cad>97</tpx1:cad></tpx1:TrackPointExtension></extensions></trkpt><trkpt lat="50.485841" lon="5.70322"><time>2026-04-26T15:02:56.000Z</time><ele>156.1</ele><extensions><tpx1:TrackPointExtension><tpx1:atemp>18</tpx1:atemp><tpx1:cad>97</tpx1:cad></tpx1:TrackPointExtension></extensions></trkpt><trkpt lat="50.485898" lon="5.703184"><time>2026-04-26T15:02:57.000Z</time><ele>156.8</ele><extensions><tpx1:TrackPointExtension><tpx1:atemp>18</tpx1:atemp><tpx1:cad>94</tpx1:cad></tpx1:TrackPointExtension></extensions></trkpt><trkpt lat="50.485956" lon="5.70316"><time>2026-04-26T15:02:58.000Z</time><ele>158.1</ele><extensions><tpx1:TrackPointExtension><tpx1:atemp>18</tpx1:atemp><tpx1:cad>92</tpx1:cad></tpx1:TrackPointExtension></extensions></trkpt><trkpt lat="50.486017" lon="5.703163"><time>2026-04-26T15:02:59.000Z</time><ele>158.3</ele><extensions><tpx1:TrackPointExtension><tpx1:atemp>18</tpx1:atemp><tpx1:cad>95</tpx1:cad></tpx1:TrackPointExtension></extensions></trkpt><trkpt lat="50.486076" lon="5.703203"><time>2026-04-26T15:03:00.000Z</time><ele>158.6</ele><extensions><tpx1:TrackPointExtension><tpx1:atemp>18</tpx1:atemp><tpx1:cad>99</tpx1:cad></tpx1:TrackPointExtension></extensions></trkpt><trkpt lat="50.486127" lon="5.703269"><time>2026-04-26T15:03:01.000Z</time><ele>158.9</ele><extensions><tpx1:TrackPointExtension><tpx1:atemp>18</tpx1:atemp><tpx1:cad>101</tpx1:cad></tpx1:TrackPointExtension></extensions></trkpt><trkpt lat="50.48617" lon="5.703354"><time>2026-04-26T15:03:02.000Z</time><ele>159.3</ele><extensions><tpx1:TrackPointExtension><tpx1:atemp>18</tpx1:atemp><tpx1:cad>98</tpx1:cad></tpx1:TrackPointExtension></extensions></trkpt><trkpt lat="50.48621" lon="5.703453"><time>2026-04-26T15:03:03.000Z</time><ele>159.6</ele><extensions><tpx1:TrackPointExtension><tpx1:atemp>18</tpx1:atemp><tpx1:cad>100</tpx1:cad></tpx1:TrackPointExtension></extensions></trkpt><trkpt lat="50.486244" lon="5.703558"><time>2026-04-26T15:03:04.000Z</time><ele>160</ele><extensions><tpx1:TrackPointExtension><tpx1:atemp>18</tpx1:atemp><tpx1:cad>103</tpx1:cad></tpx1:TrackPointExtension></extensions></trkpt><trkpt lat="50.486273" lon="5.70367"><time>2026-04-26T15:03:05.000Z</time><ele>160.5</ele><extensions><tpx1:TrackPointExtension><tpx1:atemp>18</tpx1:atemp><tpx1:cad>103</tpx1:cad></tpx1:TrackPointExtension></extensions></trkpt><trkpt lat="50.486299" lon="5.703785"><time>2026-04-26T15:03:06.000Z</time><ele>161.1</ele><extensions><tpx1:TrackPointExtension><tpx1:atemp>18</tpx1:atemp><tpx1:cad>102</tpx1:cad></tpx1:TrackPointExtension></extensions></trkpt><trkpt lat="50.486319" lon="5.703895"><time>2026-04-26T15:03:07.000Z</time><ele>161.9</ele><extensions><tpx1:TrackPointExtension><tpx1:atemp>18</tpx1:atemp><tpx1:cad>101</tpx1:cad></tpx1:TrackPointExtension></extensions></trkpt><trkpt lat="50.48634" lon="5.704003"><time>2026-04-26T15:03:08.000Z</time><ele>162.7</ele><extensions><tpx1:TrackPointExtension><tpx1:atemp>18</tpx1:atemp><tpx1:cad>97</tpx1:cad></tpx1:TrackPointExtension></extensions></trkpt><trkpt lat="50.486361" lon="5.704106"><time>2026-04-26T15:03:09.000Z</time><ele>163.5</ele><extensions><tpx1:TrackPointExtension><tpx1:atemp>18</tpx1:atemp><tpx1:cad>100</tpx1:cad></tpx1:TrackPointExtension></extensions></trkpt><trkpt lat="50.48638" lon="5.704201"><time>2026-04-26T15:03:10.000Z</time><ele>164.4</ele><extensions><tpx1:TrackPointExtension><tpx1:atemp>18</tpx1:atemp><tpx1:cad>99</tpx1:cad></tpx1:TrackPointExtension></extensions></trkpt><trkpt lat="50.4864" lon="5.704294"><time>2026-04-26T15:03:11.000Z</time><ele>165.2</ele><extensions><tpx1:TrackPointExtension><tpx1:atemp>18</tpx1:atemp><tpx1:cad>97</tpx1:cad></tpx1:TrackPointExtension></extensions></trkpt><trkpt lat="50.486424" lon="5.704389"><time>2026-04-26T15:03:12.000Z</time><ele>166</ele><extensions><tpx1:TrackPointExtension><tpx1:atemp>18</tpx1:atemp><tpx1:cad>96</tpx1:cad></tpx1:TrackPointExtension></extensions></trkpt><trkpt lat="50.486449" lon="5.704478"><time>2026-04-26T15:03:13.000Z</time><ele>166.8</ele><extensions><tpx1:TrackPointExtension><tpx1:atemp>18</tpx1:atemp><tpx1:cad>92</tpx1:cad></tpx1:TrackPointExtension></extensions></trkpt><trkpt lat="50.486475" lon="5.704562"><time>2026-04-26T15:03:14.000Z</time><ele>167.6</ele><extensions><tpx1:TrackPointExtension><tpx1:atemp>18</tpx1:atemp><tpx1:cad>90</tpx1:cad></tpx1:TrackPointExtension></extensions></trkpt><trkpt lat="50.486505" lon="5.704646"><time>2026-04-26T15:03:15.000Z</time><ele>168.3</ele><extensions><tpx1:TrackPointExtension><tpx1:atemp>18</tpx1:atemp><tpx1:cad>91</tpx1:cad></tpx1:TrackPointExtension></extensions></trkpt><trkpt lat="50.486537" lon="5.704727"><time>2026-04-26T15:03:16.000Z</time><ele>169</ele><extensions><tpx1:TrackPointExtension><tpx1:atemp>18</tpx1:atemp><tpx1:cad>92</tpx1:cad></tpx1:TrackPointExtension></extensions></trkpt><trkpt lat="50.486568" lon="5.704804"><time>2026-04-26T15:03:17.000Z</time><ele>169.6</ele><extensions><tpx1:TrackPointExtension><tpx1:atemp>18</tpx1:atemp><tpx1:cad>92</tpx1:cad></tpx1:TrackPointExtension></extensions></trkpt><trkpt lat="50.486602" lon="5.704882"><time>2026-04-26T15:03:18.000Z</time><ele>170.3</ele><extensions><tpx1:TrackPointExtension><tpx1:atemp>18</tpx1:atemp><tpx1:cad>91</tpx1:cad></tpx1:TrackPointExtension></extensions></trkpt><trkpt lat="50.486642" lon="5.70496"><time>2026-04-26T15:03:19.000Z</time><ele>171</ele><extensions><tpx1:TrackPointExtension><tpx1:atemp>18</tpx1:atemp><tpx1:cad>91</tpx1:cad></tpx1:TrackPointExtension></extensions></trkpt><trkpt lat="50.486681" lon="5.705036"><time>2026-04-26T15:03:20.000Z</time><ele>171.6</ele><extensions><tpx1:TrackPointExtension><tpx1:atemp>18</tpx1:atemp><tpx1:cad>92</tpx1:cad></tpx1:TrackPointExtension></extensions></trkpt><trkpt lat="50.486715" lon="5.70511"><time>2026-04-26T15:03:21.000Z</time><ele>172.2</ele><extensions><tpx1:TrackPointExtension><tpx1:atemp>18</tpx1:atemp><tpx1:cad>92</tpx1:cad></tpx1:TrackPointExtension></extensions></trkpt><trkpt lat="50.486753" lon="5.705188"><time>2026-04-26T15:03:22.000Z</time><ele>172.8</ele><extensions><tpx1:TrackPointExtension><tpx1:atemp>18</tpx1:atemp><tpx1:cad>93</tpx1:cad></tpx1:TrackPointExtension></extensions></trkpt><trkpt lat="50.486793" lon="5.705263"><time>2026-04-26T15:03:23.000Z</time><ele>173.4</ele><extensions><tpx1:TrackPointExtension><tpx1:atemp>18</tpx1:atemp><tpx1:cad>93</tpx1:cad></tpx1:TrackPointExtension></extensions></trkpt><trkpt lat="50.486832" lon="5.705335"><time>2026-04-26T15:03:24.000Z</time><ele>174</ele><extensions><tpx1:TrackPointExtension><tpx1:atemp>18</tpx1:atemp><tpx1:cad>92</tpx1:cad></tpx1:TrackPointExtension></extensions></trkpt><trkpt lat="50.486871" lon="5.70541"><time>2026-04-26T15:03:25.000Z</time><ele>174.6</ele><extensions><tpx1:TrackPointExtension><tpx1:atemp>18</tpx1:atemp><tpx1:cad>92</tpx1:cad></tpx1:TrackPointExtension></extensions></trkpt><trkpt lat="50.486911" lon="5.705485"><time>2026-04-26T15:03:26.000Z</time><ele>175.1</ele><extensions><tpx1:TrackPointExtension><tpx1:atemp>18</tpx1:atemp><tpx1:cad>93</tpx1:cad></tpx1:TrackPointExtension></extensions></trkpt><trkpt lat="50.486953" lon="5.705559"><time>2026-04-26T15:03:27.000Z</time><ele>175.6</ele><extensions><tpx1:TrackPointExtension><tpx1:atemp>18</tpx1:atemp><tpx1:cad>96</tpx1:cad></tpx1:TrackPointExtension></extensions></trkpt><trkpt lat="50.486996" lon="5.705637"><time>2026-04-26T15:03:28.000Z</time><ele>176.2</ele><extensions><tpx1:TrackPointExtension><tpx1:atemp>18</tpx1:atemp><tpx1:cad>96</tpx1:cad></tpx1:TrackPointExtension></extensions></trkpt><trkpt lat="50.487038" lon="5.705711"><time>2026-04-26T15:03:29.000Z</time><ele>176.7</ele><extensions><tpx1:TrackPointExtension><tpx1:atemp>18</tpx1:atemp><tpx1:cad>96</tpx1:cad></tpx1:TrackPointExtension></extensions></trkpt><trkpt lat="50.487083" lon="5.705785"><time>2026-04-26T15:03:30.000Z</time><ele>177.2</ele><extensions><tpx1:TrackPointExtension><tpx1:atemp>18</tpx1:atemp><tpx1:cad>97</tpx1:cad></tpx1:TrackPointExtension></extensions></trkpt><trkpt lat="50.487127" lon="5.705854"><time>2026-04-26T15:03:31.000Z</time><ele>177.7</ele><extensions><tpx1:TrackPointExtension><tpx1:atemp>18</tpx1:atemp><tpx1:cad>97</tpx1:cad></tpx1:TrackPointExtension></extensions></trkpt><trkpt lat="50.487174" lon="5.705924"><time>2026-04-26T15:03:32.000Z</time><ele>178.3</ele><extensions><tpx1:TrackPointExtension><tpx1:atemp>18</tpx1:atemp><tpx1:cad>98</tpx1:cad></tpx1:TrackPointExtension></extensions></trkpt><trkpt lat="50.487222" lon="5.705995"><time>2026-04-26T15:03:33.000Z</time><ele>178.8</ele><extensions><tpx1:TrackPointExtension><tpx1:atemp>18</tpx1:atemp><tpx1:cad>97</tpx1:cad></tpx1:TrackPointExtension></extensions></trkpt><trkpt lat="50.487268" lon="5.706067"><time>2026-04-26T15:03:34.000Z</time><ele>179.3</ele><extensions><tpx1:TrackPointExtension><tpx1:atemp>18</tpx1:atemp><tpx1:cad>98</tpx1:cad></tpx1:TrackPointExtension></extensions></trkpt><trkpt lat="50.487314" lon="5.706137"><time>2026-04-26T15:03:35.000Z</time><ele>179.8</ele><extensions><tpx1:TrackPointExtension><tpx1:atemp>18</tpx1:atemp><tpx1:cad>96</tpx1:cad></tpx1:TrackPointExtension></extensions></trkpt><trkpt lat="50.487362" lon="5.706207"><time>2026-04-26T15:03:36.000Z</time><ele>180.3</ele><extensions><tpx1:TrackPointExtension><tpx1:atemp>18</tpx1:atemp><tpx1:cad>97</tpx1:cad></tpx1:TrackPointExtension></extensions></trkpt><trkpt lat="50.487408" lon="5.706276"><time>2026-04-26T15:03:37.000Z</time><ele>180.9</ele><extensions><tpx1:TrackPointExtension><tpx1:atemp>18</tpx1:atemp><tpx1:cad>96</tpx1:cad></tpx1:TrackPointExtension></extensions></trkpt><trkpt lat="50.487452" lon="5.706348"><time>2026-04-26T15:03:38.000Z</time><ele>181.4</ele><extensions><tpx1:TrackPointExtension><tpx1:atemp>18</tpx1:atemp><tpx1:cad>96</tpx1:cad></tpx1:TrackPointExtension></extensions></trkpt><trkpt lat="50.487498" lon="5.706419"><time>2026-04-26T15:03:39.000Z</time><ele>181.9</ele><extensions><tpx1:TrackPointExtension><tpx1:atemp>18</tpx1:atemp><tpx1:cad>96</tpx1:cad></tpx1:TrackPointExtension></extensions></trkpt><trkpt lat="50.487541" lon="5.706487"><time>2026-04-26T15:03:40.000Z</time><ele>182.4</ele><extensions><tpx1:TrackPointExtension><tpx1:atemp>18</tpx1:atemp><tpx1:cad>98</tpx1:cad></tpx1:TrackPointExtension></extensions></trkpt><trkpt lat="50.48759" lon="5.706559"><time>2026-04-26T15:03:41.000Z</time><ele>182.9</ele><extensions><tpx1:TrackPointExtension><tpx1:atemp>18</tpx1:atemp><tpx1:cad>99</tpx1:cad></tpx1:TrackPointExtension></extensions></trkpt><trkpt lat="50.48764" lon="5.706632"><time>2026-04-26T15:03:42.000Z</time><ele>183.5</ele><extensions><tpx1:TrackPointExtension><tpx1:atemp>18</tpx1:atemp><tpx1:cad>100</tpx1:cad></tpx1:TrackPointExtension></extensions></trkpt><trkpt lat="50.487689" lon="5.706707"><time>2026-04-26T15:03:43.000Z</time><ele>184.1</ele><extensions><tpx1:TrackPointExtension><tpx1:atemp>18</tpx1:atemp><tpx1:cad>101</tpx1:cad></tpx1:TrackPointExtension></extensions></trkpt><trkpt lat="50.487737" lon="5.706783"><time>2026-04-26T15:03:44.000Z</time><ele>184.7</ele><extensions><tpx1:TrackPointExtension><tpx1:atemp>18</tpx1:atemp><tpx1:cad>103</tpx1:cad></tpx1:TrackPointExtension></extensions></trkpt><trkpt lat="50.487787" lon="5.706861"><time>2026-04-26T15:03:45.000Z</time><ele>185.3</ele><extensions><tpx1:TrackPointExtension><tpx1:atemp>18</tpx1:atemp><tpx1:cad>104</tpx1:cad></tpx1:TrackPointExtension></extensions></trkpt><trkpt lat="50.487836" lon="5.706936"><time>2026-04-26T15:03:46.000Z</time><ele>185.9</ele><extensions><tpx1:TrackPointExtension><tpx1:atemp>18</tpx1:atemp><tpx1:cad>105</tpx1:cad></tpx1:TrackPointExtension></extensions></trkpt><trkpt lat="50.487882" lon="5.707011"><time>2026-04-26T15:03:47.000Z</time><ele>186.5</ele><extensions><tpx1:TrackPointExtension><tpx1:atemp>18</tpx1:atemp><tpx1:cad>107</tpx1:cad></tpx1:TrackPointExtension></extensions></trkpt><trkpt lat="50.487932" lon="5.70709"><time>2026-04-26T15:03:48.000Z</time><ele>187.2</ele><extensions><tpx1:TrackPointExtension><tpx1:atemp>18</tpx1:atemp><tpx1:cad>107</tpx1:cad></tpx1:TrackPointExtension></extensions></trkpt><trkpt lat="50.487982" lon="5.707165"><time>2026-04-26T15:03:49.000Z</time><ele>188</ele><extensions><tpx1:TrackPointExtension><tpx1:atemp>18</tpx1:atemp><tpx1:cad>107</tpx1:cad></tpx1:TrackPointExtension></extensions></trkpt><trkpt lat="50.488034" lon="5.707241"><time>2026-04-26T15:03:50.000Z</time><ele>188.8</ele><extensions><tpx1:TrackPointExtension><tpx1:atemp>18</tpx1:atemp><tpx1:cad>104</tpx1:cad></tpx1:TrackPointExtension></extensions></trkpt><trkpt lat="50.488088" lon="5.707317"><time>2026-04-26T15:03:51.000Z</time><ele>189.7</ele><extensions><tpx1:TrackPointExtension><tpx1:atemp>18</tpx1:atemp><tpx1:cad>97</tpx1:cad></tpx1:TrackPointExtension></extensions></trkpt><trkpt lat="50.488139" lon="5.707391"><time>2026-04-26T15:03:52.000Z</time><ele>190.5</ele><extensions><tpx1:TrackPointExtension><tpx1:atemp>18</tpx1:atemp><tpx1:cad>96</tpx1:cad></tpx1:TrackPointExtension></extensions></trkpt><trkpt lat="50.488188" lon="5.707468"><time>2026-04-26T15:03:53.000Z</time><ele>191.4</ele><extensions><tpx1:TrackPointExtension><tpx1:atemp>18</tpx1:atemp><tpx1:cad>96</tpx1:cad></tpx1:TrackPointExtension></extensions></trkpt><trkpt lat="50.488239" lon="5.707545"><time>2026-04-26T15:03:54.000Z</time><ele>192.2</ele><extensions><tpx1:TrackPointExtension><tpx1:atemp>18</tpx1:atemp><tpx1:cad>95</tpx1:cad></tpx1:TrackPointExtension></extensions></trkpt><trkpt lat="50.48829" lon="5.707613"><time>2026-04-26T15:03:55.000Z</time><ele>193.1</ele><extensions><tpx1:TrackPointExtension><tpx1:atemp>18</tpx1:atemp><tpx1:cad>92</tpx1:cad></tpx1:TrackPointExtension></extensions></trkpt><trkpt lat="50.488346" lon="5.707671"><time>2026-04-26T15:03:56.000Z</time><ele>194</ele><extensions><tpx1:TrackPointExtension><tpx1:atemp>18</tpx1:atemp><tpx1:cad>91</tpx1:cad></tpx1:TrackPointExtension></extensions></trkpt><trkpt lat="50.488404" lon="5.707715"><time>2026-04-26T15:03:57.000Z</time><ele>194.9</ele><extensions><tpx1:TrackPointExtension><tpx1:atemp>18</tpx1:atemp><tpx1:cad>89</tpx1:cad></tpx1:TrackPointExtension></extensions></trkpt><trkpt lat="50.488465" lon="5.707741"><time>2026-04-26T15:03:58.000Z</time><ele>195.7</ele><extensions><tpx1:TrackPointExtension><tpx1:atemp>18</tpx1:atemp><tpx1:cad>88</tpx1:cad></tpx1:TrackPointExtension></extensions></trkpt><trkpt lat="50.48853" lon="5.707747"><time>2026-04-26T15:03:59.000Z</time><ele>196.6</ele><extensions><tpx1:TrackPointExtension><tpx1:atemp>18</tpx1:atemp><tpx1:cad>88</tpx1:cad></tpx1:TrackPointExtension></extensions></trkpt><trkpt lat="50.488595" lon="5.707739"><time>2026-04-26T15:04:00.000Z</time><ele>197.3</ele><extensions><tpx1:TrackPointExtension><tpx1:atemp>18</tpx1:atemp><tpx1:cad>90</tpx1:cad></tpx1:TrackPointExtension></extensions></trkpt><trkpt lat="50.488658" lon="5.707719"><time>2026-04-26T15:04:01.000Z</time><ele>198</ele><extensions><tpx1:TrackPointExtension><tpx1:atemp>18</tpx1:atemp><tpx1:cad>92</tpx1:cad></tpx1:TrackPointExtension></extensions></trkpt><trkpt lat="50.488725" lon="5.707688"><time>2026-04-26T15:04:02.000Z</time><ele>198.8</ele><extensions><tpx1:TrackPointExtension><tpx1:atemp>18</tpx1:atemp><tpx1:cad>93</tpx1:cad></tpx1:TrackPointExtension></extensions></trkpt><trkpt lat="50.488792" lon="5.707648"><time>2026-04-26T15:04:03.000Z</time><ele>199.5</ele><extensions><tpx1:TrackPointExtension><tpx1:atemp>18</tpx1:atemp><tpx1:cad>90</tpx1:cad></tpx1:TrackPointExtension></extensions></trkpt><trkpt lat="50.488857" lon="5.707603"><time>2026-04-26T15:04:04.000Z</time><ele>200.2</ele><extensions><tpx1:TrackPointExtension><tpx1:atemp>18</tpx1:atemp><tpx1:cad>88</tpx1:cad></tpx1:TrackPointExtension></extensions></trkpt><trkpt lat="50.488924" lon="5.707557"><time>2026-04-26T15:04:05.000Z</time><ele>200.8</ele><extensions><tpx1:TrackPointExtension><tpx1:atemp>18</tpx1:atemp><tpx1:cad>90</tpx1:cad></tpx1:TrackPointExtension></extensions></trkpt><trkpt lat="50.488995" lon="5.707512"><time>2026-04-26T15:04:06.000Z</time><ele>201.4</ele><extensions><tpx1:TrackPointExtension><tpx1:atemp>18</tpx1:atemp><tpx1:cad>91</tpx1:cad></tpx1:TrackPointExtension></extensions></trkpt><trkpt lat="50.489064" lon="5.707468"><time>2026-04-26T15:04:07.000Z</time><ele>202</ele><extensions><tpx1:TrackPointExtension><tpx1:atemp>18</tpx1:atemp><tpx1:cad>91</tpx1:cad></tpx1:TrackPointExtension></extensions></trkpt><trkpt lat="50.489134" lon="5.707422"><time>2026-04-26T15:04:08.000Z</time><ele>202.6</ele><extensions><tpx1:TrackPointExtension><tpx1:atemp>18</tpx1:atemp><tpx1:cad>92</tpx1:cad></tpx1:TrackPointExtension></extensions></trkpt><trkpt lat="50.489209" lon="5.707376"><time>2026-04-26T15:04:09.000Z</time><ele>203.3</ele><extensions><tpx1:TrackPointExtension><tpx1:atemp>18</tpx1:atemp><tpx1:cad>93</tpx1:cad></tpx1:TrackPointExtension></extensions></trkpt><trkpt lat="50.489281" lon="5.707331"><time>2026-04-26T15:04:10.000Z</time><ele>204</ele><extensions><tpx1:TrackPointExtension><tpx1:atemp>18</tpx1:atemp><tpx1:cad>94</tpx1:cad></tpx1:TrackPointExtension></extensions></trkpt><trkpt lat="50.489353" lon="5.707287"><time>2026-04-26T15:04:11.000Z</time><ele>204.6</ele><extensions><tpx1:TrackPointExtension><tpx1:atemp>18</tpx1:atemp><tpx1:cad>94</tpx1:cad></tpx1:TrackPointExtension></extensions></trkpt><trkpt lat="50.489428" lon="5.707241"><time>2026-04-26T15:04:12.000Z</time><ele>205.2</ele><extensions><tpx1:TrackPointExtension><tpx1:atemp>18</tpx1:atemp><tpx1:cad>95</tpx1:cad></tpx1:TrackPointExtension></extensions></trkpt><trkpt lat="50.489505" lon="5.707189"><time>2026-04-26T15:04:13.000Z</time><ele>205.8</ele><extensions><tpx1:TrackPointExtension><tpx1:atemp>18</tpx1:atemp><tpx1:cad>98</tpx1:cad></tpx1:TrackPointExtension></extensions></trkpt><trkpt lat="50.48958" lon="5.707131"><time>2026-04-26T15:04:14.000Z</time><ele>206.3</ele><extensions><tpx1:TrackPointExtension><tpx1:atemp>18</tpx1:atemp><tpx1:cad>100</tpx1:cad></tpx1:TrackPointExtension></extensions></trkpt><trkpt lat="50.489653" lon="5.707066"><time>2026-04-26T15:04:15.000Z</time><ele>206.9</ele><extensions><tpx1:TrackPointExtension><tpx1:atemp>18</tpx1:atemp><tpx1:cad>102</tpx1:cad></tpx1:TrackPointExtension></extensions></trkpt><trkpt lat="50.489725" lon="5.707"><time>2026-04-26T15:04:16.000Z</time><ele>207.4</ele><extensions><tpx1:TrackPointExtension><tpx1:atemp>18</tpx1:atemp><tpx1:cad>102</tpx1:cad></tpx1:TrackPointExtension></extensions></trkpt><trkpt lat="50.489797" lon="5.706931"><time>2026-04-26T15:04:17.000Z</time><ele>208</ele><extensions><tpx1:TrackPointExtension><tpx1:atemp>18</tpx1:atemp><tpx1:cad>101</tpx1:cad></tpx1:TrackPointExtension></extensions></trkpt><trkpt lat="50.489868" lon="5.706859"><time>2026-04-26T15:04:18.000Z</time><ele>208.6</ele><extensions><tpx1:TrackPointExtension><tpx1:atemp>18</tpx1:atemp><tpx1:cad>101</tpx1:cad></tpx1:TrackPointExtension></extensions></trkpt><trkpt lat="50.489937" lon="5.70679"><time>2026-04-26T15:04:19.000Z</time><ele>209.3</ele><extensions><tpx1:TrackPointExtension><tpx1:atemp>18</tpx1:atemp><tpx1:cad>99</tpx1:cad></tpx1:TrackPointExtension></extensions></trkpt><trkpt lat="50.490004" lon="5.706721"><time>2026-04-26T15:04:20.000Z</time><ele>210.1</ele><extensions><tpx1:TrackPointExtension><tpx1:atemp>18</tpx1:atemp><tpx1:cad>94</tpx1:cad></tpx1:TrackPointExtension></extensions></trkpt><trkpt lat="50.490072" lon="5.706648"><time>2026-04-26T15:04:21.000Z</time><ele>211</ele><extensions><tpx1:TrackPointExtension><tpx1:atemp>18</tpx1:atemp><tpx1:cad>95</tpx1:cad></tpx1:TrackPointExtension></extensions></trkpt><trkpt lat="50.490137" lon="5.706578"><time>2026-04-26T15:04:22.000Z</time><ele>211.9</ele><extensions><tpx1:TrackPointExtension><tpx1:atemp>18</tpx1:atemp><tpx1:cad>94</tpx1:cad></tpx1:TrackPointExtension></extensions></trkpt><trkpt lat="50.490196" lon="5.706508"><time>2026-04-26T15:04:23.000Z</time><ele>212.8</ele><extensions><tpx1:TrackPointExtension><tpx1:atemp>18</tpx1:atemp><tpx1:cad>90</tpx1:cad></tpx1:TrackPointExtension></extensions></trkpt><trkpt lat="50.490253" lon="5.70644"><time>2026-04-26T15:04:24.000Z</time><ele>213.8</ele><extensions><tpx1:TrackPointExtension><tpx1:atemp>18</tpx1:atemp><tpx1:cad>87</tpx1:cad></tpx1:TrackPointExtension></extensions></trkpt><trkpt lat="50.490305" lon="5.706375"><time>2026-04-26T15:04:25.000Z</time><ele>214.8</ele><extensions><tpx1:TrackPointExtension><tpx1:atemp>18</tpx1:atemp><tpx1:cad>91</tpx1:cad></tpx1:TrackPointExtension></extensions></trkpt><trkpt lat="50.490355" lon="5.70631"><time>2026-04-26T15:04:26.000Z</time><ele>215.8</ele><extensions><tpx1:TrackPointExtension><tpx1:atemp>18</tpx1:atemp><tpx1:cad>88</tpx1:cad></tpx1:TrackPointExtension></extensions></trkpt><trkpt lat="50.490404" lon="5.706247"><time>2026-04-26T15:04:27.000Z</time><ele>216.8</ele><extensions><tpx1:TrackPointExtension><tpx1:atemp>18</tpx1:atemp><tpx1:cad>85</tpx1:cad></tpx1:TrackPointExtension></extensions></trkpt><trkpt lat="50.490447" lon="5.706185"><time>2026-04-26T15:04:28.000Z</time><ele>217.8</ele><extensions><tpx1:TrackPointExtension><tpx1:atemp>18</tpx1:atemp><tpx1:cad>82</tpx1:cad></tpx1:TrackPointExtension></extensions></trkpt><trkpt lat="50.490491" lon="5.706125"><time>2026-04-26T15:04:29.000Z</time><ele>218.6</ele><extensions><tpx1:TrackPointExtension><tpx1:atemp>18</tpx1:atemp><tpx1:cad>82</tpx1:cad></tpx1:TrackPointExtension></extensions></trkpt><trkpt lat="50.490535" lon="5.706064"><time>2026-04-26T15:04:30.000Z</time><ele>219.5</ele><extensions><tpx1:TrackPointExtension><tpx1:atemp>18</tpx1:atemp><tpx1:cad>88</tpx1:cad></tpx1:TrackPointExtension></extensions></trkpt><trkpt lat="50.490577" lon="5.70601"><time>2026-04-26T15:04:31.000Z</time><ele>220.3</ele><extensions><tpx1:TrackPointExtension><tpx1:atemp>18</tpx1:atemp><tpx1:cad>88</tpx1:cad></tpx1:TrackPointExtension></extensions></trkpt><trkpt lat="50.490624" lon="5.705962"><time>2026-04-26T15:04:32.000Z</time><ele>221.2</ele><extensions><tpx1:TrackPointExtension><tpx1:atemp>18</tpx1:atemp><tpx1:cad>86</tpx1:cad></tpx1:TrackPointExtension></extensions></trkpt><trkpt lat="50.490674" lon="5.705921"><time>2026-04-26T15:04:33.000Z</time><ele>222</ele><extensions><tpx1:TrackPointExtension><tpx1:atemp>18</tpx1:atemp><tpx1:cad>83</tpx1:cad></tpx1:TrackPointExtension></extensions></trkpt><trkpt lat="50.490721" lon="5.705885"><time>2026-04-26T15:04:34.000Z</time><ele>222.8</ele><extensions><tpx1:TrackPointExtension><tpx1:atemp>18</tpx1:atemp><tpx1:cad>82</tpx1:cad></tpx1:TrackPointExtension></extensions></trkpt><trkpt lat="50.490769" lon="5.705849"><time>2026-04-26T15:04:35.000Z</time><ele>223.7</ele><extensions><tpx1:TrackPointExtension><tpx1:atemp>18</tpx1:atemp><tpx1:cad>81</tpx1:cad></tpx1:TrackPointExtension></extensions></trkpt><trkpt lat="50.490815" lon="5.70581"><time>2026-04-26T15:04:36.000Z</time><ele>224.5</ele><extensions><tpx1:TrackPointExtension><tpx1:atemp>18</tpx1:atemp><tpx1:cad>80</tpx1:cad></tpx1:TrackPointExtension></extensions></trkpt><trkpt lat="50.490858" lon="5.705767"><time>2026-04-26T15:04:37.000Z</time><ele>225.4</ele><extensions><tpx1:TrackPointExtension><tpx1:atemp>18</tpx1:atemp><tpx1:cad>98</tpx1:cad></tpx1:TrackPointExtension></extensions></trkpt><trkpt lat="50.490898" lon="5.705718"><time>2026-04-26T15:04:38.000Z</time><ele>226.2</ele><extensions><tpx1:TrackPointExtension><tpx1:atemp>18</tpx1:atemp><tpx1:cad>97</tpx1:cad></tpx1:TrackPointExtension></extensions></trkpt><trkpt lat="50.490932" lon="5.705661"><time>2026-04-26T15:04:39.000Z</time><ele>227.1</ele><extensions><tpx1:TrackPointExtension><tpx1:atemp>18</tpx1:atemp><tpx1:cad>96</tpx1:cad></tpx1:TrackPointExtension></extensions></trkpt><trkpt lat="50.490959" lon="5.7056"><time>2026-04-26T15:04:40.000Z</time><ele>227.9</ele><extensions><tpx1:TrackPointExtension><tpx1:atemp>18</tpx1:atemp><tpx1:cad>91</tpx1:cad></tpx1:TrackPointExtension></extensions></trkpt><trkpt lat="50.490978" lon="5.705534"><time>2026-04-26T15:04:41.000Z</time><ele>228.7</ele><extensions><tpx1:TrackPointExtension><tpx1:atemp>18</tpx1:atemp><tpx1:cad>91</tpx1:cad></tpx1:TrackPointExtension></extensions></trkpt><trkpt lat="50.49099" lon="5.705463"><time>2026-04-26T15:04:42.000Z</time><ele>229.6</ele><extensions><tpx1:TrackPointExtension><tpx1:atemp>18</tpx1:atemp><tpx1:cad>89</tpx1:cad></tpx1:TrackPointExtension></extensions></trkpt><trkpt lat="50.490997" lon="5.705395"><time>2026-04-26T15:04:43.000Z</time><ele>230.4</ele><extensions><tpx1:TrackPointExtension><tpx1:atemp>18</tpx1:atemp><tpx1:cad>85</tpx1:cad></tpx1:TrackPointExtension></extensions></trkpt><trkpt lat="50.491003" lon="5.705328"><time>2026-04-26T15:04:44.000Z</time><ele>231.2</ele><extensions><tpx1:TrackPointExtension><tpx1:atemp>18</tpx1:atemp><tpx1:cad>85</tpx1:cad></tpx1:TrackPointExtension></extensions></trkpt><trkpt lat="50.491003" lon="5.705259"><time>2026-04-26T15:04:45.000Z</time><ele>232</ele><extensions><tpx1:TrackPointExtension><tpx1:atemp>18</tpx1:atemp><tpx1:cad>85</tpx1:cad></tpx1:TrackPointExtension></extensions></trkpt><trkpt lat="50.490999" lon="5.705192"><time>2026-04-26T15:04:46.000Z</time><ele>232.8</ele><extensions><tpx1:TrackPointExtension><tpx1:atemp>18</tpx1:atemp><tpx1:cad>86</tpx1:cad></tpx1:TrackPointExtension></extensions></trkpt><trkpt lat="50.490995" lon="5.705125"><time>2026-04-26T15:04:47.000Z</time><ele>233.6</ele><extensions><tpx1:TrackPointExtension><tpx1:atemp>18</tpx1:atemp><tpx1:cad>86</tpx1:cad></tpx1:TrackPointExtension></extensions></trkpt><trkpt lat="50.490993" lon="5.705058"><time>2026-04-26T15:04:48.000Z</time><ele>234.5</ele><extensions><tpx1:TrackPointExtension><tpx1:atemp>18</tpx1:atemp><tpx1:cad>82</tpx1:cad></tpx1:TrackPointExtension></extensions></trkpt><trkpt lat="50.490992" lon="5.704993"><time>2026-04-26T15:04:49.000Z</time><ele>235.3</ele><extensions><tpx1:TrackPointExtension><tpx1:atemp>18</tpx1:atemp><tpx1:cad>81</tpx1:cad></tpx1:TrackPointExtension></extensions></trkpt><trkpt lat="50.490988" lon="5.70493"><time>2026-04-26T15:04:50.000Z</time><ele>236.1</ele><extensions><tpx1:TrackPointExtension><tpx1:atemp>18</tpx1:atemp><tpx1:cad>80</tpx1:cad></tpx1:TrackPointExtension></extensions></trkpt><trkpt lat="50.49098" lon="5.704869"><time>2026-04-26T15:04:51.000Z</time><ele>236.9</ele><extensions><tpx1:TrackPointExtension><tpx1:atemp>18</tpx1:atemp><tpx1:cad>79</tpx1:cad></tpx1:TrackPointExtension></extensions></trkpt><trkpt lat="50.490971" lon="5.704809"><time>2026-04-26T15:04:52.000Z</time><ele>237.7</ele><extensions><tpx1:TrackPointExtension><tpx1:atemp>18</tpx1:atemp><tpx1:cad>77</tpx1:cad></tpx1:TrackPointExtension></extensions></trkpt><trkpt lat="50.490963" lon="5.70475"><time>2026-04-26T15:04:53.000Z</time><ele>238.5</ele><extensions><tpx1:TrackPointExtension><tpx1:atemp>18</tpx1:atemp><tpx1:cad>76</tpx1:cad></tpx1:TrackPointExtension></extensions></trkpt><trkpt lat="50.490953" lon="5.704692"><time>2026-04-26T15:04:54.000Z</time><ele>239.2</ele><extensions><tpx1:TrackPointExtension><tpx1:atemp>18</tpx1:atemp><tpx1:cad>76</tpx1:cad></tpx1:TrackPointExtension></extensions></trkpt><trkpt lat="50.49094" lon="5.704636"><time>2026-04-26T15:04:55.000Z</time><ele>240</ele><extensions><tpx1:TrackPointExtension><tpx1:atemp>18</tpx1:atemp><tpx1:cad>74</tpx1:cad></tpx1:TrackPointExtension></extensions></trkpt><trkpt lat="50.490927" lon="5.704579"><time>2026-04-26T15:04:56.000Z</time><ele>240.7</ele><extensions><tpx1:TrackPointExtension><tpx1:atemp>18</tpx1:atemp><tpx1:cad>81</tpx1:cad></tpx1:TrackPointExtension></extensions></trkpt><trkpt lat="50.490917" lon="5.704523"><time>2026-04-26T15:04:57.000Z</time><ele>241.4</ele><extensions><tpx1:TrackPointExtension><tpx1:atemp>18</tpx1:atemp><tpx1:cad>87</tpx1:cad></tpx1:TrackPointExtension></extensions></trkpt><trkpt lat="50.490911" lon="5.704466"><time>2026-04-26T15:04:58.000Z</time><ele>242</ele><extensions><tpx1:TrackPointExtension><tpx1:atemp>18</tpx1:atemp><tpx1:cad>89</tpx1:cad></tpx1:TrackPointExtension></extensions></trkpt><trkpt lat="50.490908" lon="5.704407"><time>2026-04-26T15:04:59.000Z</time><ele>242.6</ele><extensions><tpx1:TrackPointExtension><tpx1:atemp>18</tpx1:atemp><tpx1:cad>91</tpx1:cad></tpx1:TrackPointExtension></extensions></trkpt><trkpt lat="50.490902" lon="5.704342"><time>2026-04-26T15:05:00.000Z</time><ele>243.3</ele><extensions><tpx1:TrackPointExtension><tpx1:atemp>18</tpx1:atemp><tpx1:cad>97</tpx1:cad></tpx1:TrackPointExtension></extensions></trkpt><trkpt lat="50.490898" lon="5.704275"><time>2026-04-26T15:05:01.000Z</time><ele>244</ele><extensions><tpx1:TrackPointExtension><tpx1:atemp>18</tpx1:atemp><tpx1:cad>85</tpx1:cad></tpx1:TrackPointExtension></extensions></trkpt><trkpt lat="50.490898" lon="5.704203"><time>2026-04-26T15:05:02.000Z</time><ele>244.5</ele><extensions><tpx1:TrackPointExtension><tpx1:atemp>18</tpx1:atemp><tpx1:cad>89</tpx1:cad></tpx1:TrackPointExtension></extensions></trkpt><trkpt lat="50.490898" lon="5.704126"><time>2026-04-26T15:05:03.000Z</time><ele>245</ele><extensions><tpx1:TrackPointExtension><tpx1:atemp>18</tpx1:atemp><tpx1:cad>92</tpx1:cad></tpx1:TrackPointExtension></extensions></trkpt><trkpt lat="50.490898" lon="5.704051"><time>2026-04-26T15:05:04.000Z</time><ele>245.5</ele><extensions><tpx1:TrackPointExtension><tpx1:atemp>18</tpx1:atemp><tpx1:cad>92</tpx1:cad></tpx1:TrackPointExtension></extensions></trkpt><trkpt lat="50.490898" lon="5.703973"><time>2026-04-26T15:05:05.000Z</time><ele>246</ele><extensions><tpx1:TrackPointExtension><tpx1:atemp>18</tpx1:atemp><tpx1:cad>94</tpx1:cad></tpx1:TrackPointExtension></extensions></trkpt><trkpt lat="50.4909" lon="5.703894"><time>2026-04-26T15:05:06.000Z</time><ele>246.6</ele><extensions><tpx1:TrackPointExtension><tpx1:atemp>18</tpx1:atemp><tpx1:cad>94</tpx1:cad></tpx1:TrackPointExtension></extensions></trkpt><trkpt lat="50.490906" lon="5.703819"><time>2026-04-26T15:05:07.000Z</time><ele>247.1</ele><extensions><tpx1:TrackPointExtension><tpx1:atemp>18</tpx1:atemp><tpx1:cad>93</tpx1:cad></tpx1:TrackPointExtension></extensions></trkpt><trkpt lat="50.490913" lon="5.703741"><time>2026-04-26T15:05:08.000Z</time><ele>247.6</ele><extensions><tpx1:TrackPointExtension><tpx1:atemp>18</tpx1:atemp><tpx1:cad>95</tpx1:cad></tpx1:TrackPointExtension></extensions></trkpt><trkpt lat="50.490921" lon="5.703665"><time>2026-04-26T15:05:09.000Z</time><ele>248.2</ele><extensions><tpx1:TrackPointExtension><tpx1:atemp>18</tpx1:atemp><tpx1:cad>92</tpx1:cad></tpx1:TrackPointExtension></extensions></trkpt><trkpt lat="50.490932" lon="5.703593"><time>2026-04-26T15:05:10.000Z</time><ele>248.8</ele><extensions><tpx1:TrackPointExtension><tpx1:atemp>18</tpx1:atemp><tpx1:cad>90</tpx1:cad></tpx1:TrackPointExtension></extensions></trkpt><trkpt lat="50.490946" lon="5.703523"><time>2026-04-26T15:05:11.000Z</time><ele>249.4</ele><extensions><tpx1:TrackPointExtension><tpx1:atemp>18</tpx1:atemp><tpx1:cad>89</tpx1:cad></tpx1:TrackPointExtension></extensions></trkpt><trkpt lat="50.490957" lon="5.703452"><time>2026-04-26T15:05:12.000Z</time><ele>250</ele><extensions><tpx1:TrackPointExtension><tpx1:atemp>18</tpx1:atemp><tpx1:cad>88</tpx1:cad></tpx1:TrackPointExtension></extensions></trkpt><trkpt lat="50.490969" lon="5.703381"><time>2026-04-26T15:05:13.000Z</time><ele>250.5</ele><extensions><tpx1:TrackPointExtension><tpx1:atemp>18</tpx1:atemp><tpx1:cad>89</tpx1:cad></tpx1:TrackPointExtension></extensions></trkpt><trkpt lat="50.490982" lon="5.703311"><time>2026-04-26T15:05:14.000Z</time><ele>251</ele><extensions><tpx1:TrackPointExtension><tpx1:atemp>18</tpx1:atemp><tpx1:cad>88</tpx1:cad></tpx1:TrackPointExtension></extensions></trkpt><trkpt lat="50.490998" lon="5.703241"><time>2026-04-26T15:05:15.000Z</time><ele>251.6</ele><extensions><tpx1:TrackPointExtension><tpx1:atemp>18</tpx1:atemp><tpx1:cad>90</tpx1:cad></tpx1:TrackPointExtension></extensions></trkpt><trkpt lat="50.491011" lon="5.703176"><time>2026-04-26T15:05:16.000Z</time><ele>252.2</ele><extensions><tpx1:TrackPointExtension><tpx1:atemp>18</tpx1:atemp><tpx1:cad>89</tpx1:cad></tpx1:TrackPointExtension></extensions></trkpt><trkpt lat="50.491022" lon="5.703109"><time>2026-04-26T15:05:17.000Z</time><ele>252.7</ele><extensions><tpx1:TrackPointExtension><tpx1:atemp>18</tpx1:atemp><tpx1:cad>96</tpx1:cad></tpx1:TrackPointExtension></extensions></trkpt><trkpt lat="50.491034" lon="5.703041"><time>2026-04-26T15:05:18.000Z</time><ele>253.3</ele><extensions><tpx1:TrackPointExtension><tpx1:atemp>18</tpx1:atemp><tpx1:cad>93</tpx1:cad></tpx1:TrackPointExtension></extensions></trkpt><trkpt lat="50.491045" lon="5.702978"><time>2026-04-26T15:05:19.000Z</time><ele>253.8</ele><extensions><tpx1:TrackPointExtension><tpx1:atemp>18</tpx1:atemp><tpx1:cad>93</tpx1:cad></tpx1:TrackPointExtension></extensions></trkpt><trkpt lat="50.491058" lon="5.702911"><time>2026-04-26T15:05:20.000Z</time><ele>254.3</ele><extensions><tpx1:TrackPointExtension><tpx1:atemp>18</tpx1:atemp><tpx1:cad>95</tpx1:cad></tpx1:TrackPointExtension></extensions></trkpt><trkpt lat="50.491072" lon="5.70284"><time>2026-04-26T15:05:21.000Z</time><ele>254.8</ele><extensions><tpx1:TrackPointExtension><tpx1:atemp>18</tpx1:atemp><tpx1:cad>91</tpx1:cad></tpx1:TrackPointExtension></extensions></trkpt><trkpt lat="50.491085" lon="5.70277"><time>2026-04-26T15:05:22.000Z</time><ele>255.3</ele><extensions><tpx1:TrackPointExtension><tpx1:atemp>18</tpx1:atemp><tpx1:cad>89</tpx1:cad></tpx1:TrackPointExtension></extensions></trkpt><trkpt lat="50.491099" lon="5.702699"><time>2026-04-26T15:05:23.000Z</time><ele>255.7</ele><extensions><tpx1:TrackPointExtension><tpx1:atemp>18</tpx1:atemp><tpx1:cad>91</tpx1:cad></tpx1:TrackPointExtension></extensions></trkpt><trkpt lat="50.491112" lon="5.702625"><time>2026-04-26T15:05:24.000Z</time><ele>256.2</ele><extensions><tpx1:TrackPointExtension><tpx1:atemp>18</tpx1:atemp><tpx1:cad>92</tpx1:cad></tpx1:TrackPointExtension></extensions></trkpt><trkpt lat="50.491123" lon="5.702549"><time>2026-04-26T15:05:25.000Z</time><ele>256.7</ele><extensions><tpx1:TrackPointExtension><tpx1:atemp>18</tpx1:atemp><tpx1:cad>95</tpx1:cad></tpx1:TrackPointExtension></extensions></trkpt><trkpt lat="50.491135" lon="5.702472"><time>2026-04-26T15:05:26.000Z</time><ele>257.1</ele><extensions><tpx1:TrackPointExtension><tpx1:atemp>18</tpx1:atemp><tpx1:cad>93</tpx1:cad></tpx1:TrackPointExtension></extensions></trkpt><trkpt lat="50.491151" lon="5.702393"><time>2026-04-26T15:05:27.000Z</time><ele>257.6</ele><extensions><tpx1:TrackPointExtension><tpx1:atemp>18</tpx1:atemp><tpx1:cad>85</tpx1:cad></tpx1:TrackPointExtension></extensions></trkpt><trkpt lat="50.491166" lon="5.702319"><time>2026-04-26T15:05:28.000Z</time><ele>258</ele><extensions><tpx1:TrackPointExtension><tpx1:atemp>18</tpx1:atemp><tpx1:cad>85</tpx1:cad></tpx1:TrackPointExtension></extensions></trkpt><trkpt lat="50.491183" lon="5.702244"><time>2026-04-26T15:05:29.000Z</time><ele>258.5</ele><extensions><tpx1:TrackPointExtension><tpx1:atemp>18</tpx1:atemp><tpx1:cad>93</tpx1:cad></tpx1:TrackPointExtension></extensions></trkpt><trkpt lat="50.491202" lon="5.70217"><time>2026-04-26T15:05:30.000Z</time><ele>258.9</ele><extensions><tpx1:TrackPointExtension><tpx1:atemp>18</tpx1:atemp><tpx1:cad>96</tpx1:cad></tpx1:TrackPointExtension></extensions></trkpt><trkpt lat="50.491223" lon="5.702099"><time>2026-04-26T15:05:31.000Z</time><ele>259.4</ele><extensions><tpx1:TrackPointExtension><tpx1:atemp>18</tpx1:atemp><tpx1:cad>96</tpx1:cad></tpx1:TrackPointExtension></extensions></trkpt><trkpt lat="50.491247" lon="5.702029"><time>2026-04-26T15:05:32.000Z</time><ele>259.8</ele><extensions><tpx1:TrackPointExtension><tpx1:atemp>18</tpx1:atemp><tpx1:cad>97</tpx1:cad></tpx1:TrackPointExtension></extensions></trkpt><trkpt lat="50.491277" lon="5.701961"><time>2026-04-26T15:05:33.000Z</time><ele>260.3</ele><extensions><tpx1:TrackPointExtension><tpx1:atemp>18</tpx1:atemp><tpx1:cad>99</tpx1:cad></tpx1:TrackPointExtension></extensions></trkpt><trkpt lat="50.491309" lon="5.701899"><time>2026-04-26T15:05:34.000Z</time><ele>260.9</ele><extensions><tpx1:TrackPointExtension><tpx1:atemp>18</tpx1:atemp><tpx1:cad>96</tpx1:cad></tpx1:TrackPointExtension></extensions></trkpt><trkpt lat="50.491344" lon="5.701843"><time>2026-04-26T15:05:35.000Z</time><ele>261.5</ele><extensions><tpx1:TrackPointExtension><tpx1:atemp>18</tpx1:atemp><tpx1:cad>94</tpx1:cad></tpx1:TrackPointExtension></extensions></trkpt><trkpt lat="50.49138" lon="5.701789"><time>2026-04-26T15:05:36.000Z</time><ele>262.1</ele><extensions><tpx1:TrackPointExtension><tpx1:atemp>18</tpx1:atemp><tpx1:cad>95</tpx1:cad></tpx1:TrackPointExtension></extensions></trkpt><trkpt lat="50.491418" lon="5.70174"><time>2026-04-26T15:05:37.000Z</time><ele>262.7</ele><extensions><tpx1:TrackPointExtension><tpx1:atemp>18</tpx1:atemp><tpx1:cad>95</tpx1:cad></tpx1:TrackPointExtension></extensions></trkpt><trkpt lat="50.491456" lon="5.701694"><time>2026-04-26T15:05:38.000Z</time><ele>263.3</ele><extensions><tpx1:TrackPointExtension><tpx1:atemp>18</tpx1:atemp><tpx1:cad>93</tpx1:cad></tpx1:TrackPointExtension></extensions></trkpt><trkpt lat="50.491496" lon="5.70165"><time>2026-04-26T15:05:39.000Z</time><ele>264</ele><extensions><tpx1:TrackPointExtension><tpx1:atemp>18</tpx1:atemp><tpx1:cad>91</tpx1:cad></tpx1:TrackPointExtension></extensions></trkpt><trkpt lat="50.491538" lon="5.70161"><time>2026-04-26T15:05:40.000Z</time><ele>264.6</ele><extensions><tpx1:TrackPointExtension><tpx1:atemp>18</tpx1:atemp><tpx1:cad>87</tpx1:cad></tpx1:TrackPointExtension></extensions></trkpt><trkpt lat="50.491579" lon="5.70157"><time>2026-04-26T15:05:41.000Z</time><ele>265.3</ele><extensions><tpx1:TrackPointExtension><tpx1:atemp>18</tpx1:atemp><tpx1:cad>83</tpx1:cad></tpx1:TrackPointExtension></extensions></trkpt><trkpt lat="50.49162" lon="5.701529"><time>2026-04-26T15:05:42.000Z</time><ele>266</ele><extensions><tpx1:TrackPointExtension><tpx1:atemp>18</tpx1:atemp><tpx1:cad>82</tpx1:cad></tpx1:TrackPointExtension></extensions></trkpt><trkpt lat="50.49166" lon="5.701488"><time>2026-04-26T15:05:43.000Z</time><ele>266.6</ele><extensions><tpx1:TrackPointExtension><tpx1:atemp>18</tpx1:atemp><tpx1:cad>83</tpx1:cad></tpx1:TrackPointExtension></extensions></trkpt><trkpt lat="50.491702" lon="5.701446"><time>2026-04-26T15:05:44.000Z</time><ele>267.3</ele><extensions><tpx1:TrackPointExtension><tpx1:atemp>18</tpx1:atemp><tpx1:cad>82</tpx1:cad></tpx1:TrackPointExtension></extensions></trkpt><trkpt lat="50.491744" lon="5.701403"><time>2026-04-26T15:05:45.000Z</time><ele>267.9</ele><extensions><tpx1:TrackPointExtension><tpx1:atemp>18</tpx1:atemp><tpx1:cad>90</tpx1:cad></tpx1:TrackPointExtension></extensions></trkpt><trkpt lat="50.491784" lon="5.701361"><time>2026-04-26T15:05:46.000Z</time><ele>268.6</ele><extensions><tpx1:TrackPointExtension><tpx1:atemp>18</tpx1:atemp><tpx1:cad>92</tpx1:cad></tpx1:TrackPointExtension></extensions></trkpt><trkpt lat="50.491822" lon="5.701314"><time>2026-04-26T15:05:47.000Z</time><ele>269.2</ele><extensions><tpx1:TrackPointExtension><tpx1:atemp>18</tpx1:atemp><tpx1:cad>93</tpx1:cad></tpx1:TrackPointExtension></extensions></trkpt><trkpt lat="50.491861" lon="5.701263"><time>2026-04-26T15:05:48.000Z</time><ele>269.9</ele><extensions><tpx1:TrackPointExtension><tpx1:atemp>18</tpx1:atemp><tpx1:cad>96</tpx1:cad></tpx1:TrackPointExtension></extensions></trkpt><trkpt lat="50.491898" lon="5.701211"><time>2026-04-26T15:05:49.000Z</time><ele>270.5</ele><extensions><tpx1:TrackPointExtension><tpx1:atemp>18</tpx1:atemp><tpx1:cad>100</tpx1:cad></tpx1:TrackPointExtension></extensions></trkpt><trkpt lat="50.491936" lon="5.701158"><time>2026-04-26T15:05:50.000Z</time><ele>271.2</ele><extensions><tpx1:TrackPointExtension><tpx1:atemp>18</tpx1:atemp><tpx1:cad>99</tpx1:cad></tpx1:TrackPointExtension></extensions></trkpt><trkpt lat="50.491972" lon="5.701101"><time>2026-04-26T15:05:51.000Z</time><ele>271.8</ele><extensions><tpx1:TrackPointExtension><tpx1:atemp>18</tpx1:atemp><tpx1:cad>100</tpx1:cad></tpx1:TrackPointExtension></extensions></trkpt><trkpt lat="50.492007" lon="5.70104"><time>2026-04-26T15:05:52.000Z</time><ele>272.6</ele><extensions><tpx1:TrackPointExtension><tpx1:atemp>18</tpx1:atemp><tpx1:cad>100</tpx1:cad></tpx1:TrackPointExtension></extensions></trkpt><trkpt lat="50.492041" lon="5.700977"><time>2026-04-26T15:05:53.000Z</time><ele>273.3</ele><extensions><tpx1:TrackPointExtension><tpx1:atemp>18</tpx1:atemp><tpx1:cad>94</tpx1:cad></tpx1:TrackPointExtension></extensions></trkpt><trkpt lat="50.492074" lon="5.700913"><time>2026-04-26T15:05:54.000Z</time><ele>274.1</ele><extensions><tpx1:TrackPointExtension><tpx1:atemp>18</tpx1:atemp><tpx1:cad>88</tpx1:cad></tpx1:TrackPointExtension></extensions></trkpt><trkpt lat="50.492102" lon="5.700847"><time>2026-04-26T15:05:55.000Z</time><ele>274.8</ele><extensions><tpx1:TrackPointExtension><tpx1:atemp>18</tpx1:atemp><tpx1:cad>88</tpx1:cad></tpx1:TrackPointExtension></extensions></trkpt><trkpt lat="50.492129" lon="5.700777"><time>2026-04-26T15:05:56.000Z</time><ele>275.7</ele><extensions><tpx1:TrackPointExtension><tpx1:atemp>18</tpx1:atemp><tpx1:cad>87</tpx1:cad></tpx1:TrackPointExtension></extensions></trkpt><trkpt lat="50.492154" lon="5.700706"><time>2026-04-26T15:05:57.000Z</time><ele>276.5</ele><extensions><tpx1:TrackPointExtension><tpx1:atemp>18</tpx1:atemp><tpx1:cad>87</tpx1:cad></tpx1:TrackPointExtension></extensions></trkpt><trkpt lat="50.492174" lon="5.700636"><time>2026-04-26T15:05:58.000Z</time><ele>277.3</ele><extensions><tpx1:TrackPointExtension><tpx1:atemp>18</tpx1:atemp><tpx1:cad>84</tpx1:cad></tpx1:TrackPointExtension></extensions></trkpt><trkpt lat="50.492191" lon="5.700567"><time>2026-04-26T15:05:59.000Z</time><ele>278.1</ele><extensions><tpx1:TrackPointExtension><tpx1:atemp>18</tpx1:atemp><tpx1:cad>82</tpx1:cad></tpx1:TrackPointExtension></extensions></trkpt><trkpt lat="50.492207" lon="5.700497"><time>2026-04-26T15:06:00.000Z</time><ele>278.9</ele><extensions><tpx1:TrackPointExtension><tpx1:atemp>18</tpx1:atemp><tpx1:cad>81</tpx1:cad></tpx1:TrackPointExtension></extensions></trkpt><trkpt lat="50.49222" lon="5.700427"><time>2026-04-26T15:06:01.000Z</time><ele>279.7</ele><extensions><tpx1:TrackPointExtension><tpx1:atemp>19</tpx1:atemp><tpx1:cad>88</tpx1:cad></tpx1:TrackPointExtension></extensions></trkpt><trkpt lat="50.49223" lon="5.700355"><time>2026-04-26T15:06:02.000Z</time><ele>280.5</ele><extensions><tpx1:TrackPointExtension><tpx1:atemp>19</tpx1:atemp><tpx1:cad>98</tpx1:cad></tpx1:TrackPointExtension></extensions></trkpt><trkpt lat="50.492237" lon="5.700286"><time>2026-04-26T15:06:03.000Z</time><ele>281.3</ele><extensions><tpx1:TrackPointExtension><tpx1:atemp>19</tpx1:atemp><tpx1:cad>96</tpx1:cad></tpx1:TrackPointExtension></extensions></trkpt><trkpt lat="50.492243" lon="5.700219"><time>2026-04-26T15:06:04.000Z</time><ele>282</ele><extensions><tpx1:TrackPointExtension><tpx1:atemp>19</tpx1:atemp><tpx1:cad>94</tpx1:cad></tpx1:TrackPointExtension></extensions></trkpt><trkpt lat="50.492247" lon="5.700152"><time>2026-04-26T15:06:05.000Z</time><ele>282.8</ele><extensions><tpx1:TrackPointExtension><tpx1:atemp>19</tpx1:atemp><tpx1:cad>94</tpx1:cad></tpx1:TrackPointExtension></extensions></trkpt><trkpt lat="50.492249" lon="5.700082"><time>2026-04-26T15:06:06.000Z</time><ele>283.5</ele><extensions><tpx1:TrackPointExtension><tpx1:atemp>19</tpx1:atemp><tpx1:cad>95</tpx1:cad></tpx1:TrackPointExtension></extensions></trkpt><trkpt lat="50.492249" lon="5.700015"><time>2026-04-26T15:06:07.000Z</time><ele>284.3</ele><extensions><tpx1:TrackPointExtension><tpx1:atemp>19</tpx1:atemp><tpx1:cad>94</tpx1:cad></tpx1:TrackPointExtension></extensions></trkpt><trkpt lat="50.492249" lon="5.69995"><time>2026-04-26T15:06:08.000Z</time><ele>284.9</ele><extensions><tpx1:TrackPointExtension><tpx1:atemp>19</tpx1:atemp><tpx1:cad>89</tpx1:cad></tpx1:TrackPointExtension></extensions></trkpt><trkpt lat="50.492253" lon="5.699886"><time>2026-04-26T15:06:09.000Z</time><ele>285.6</ele><extensions><tpx1:TrackPointExtension><tpx1:atemp>19</tpx1:atemp><tpx1:cad>85</tpx1:cad></tpx1:TrackPointExtension></extensions></trkpt><trkpt lat="50.492258" lon="5.699826"><time>2026-04-26T15:06:10.000Z</time><ele>286.2</ele><extensions><tpx1:TrackPointExtension><tpx1:atemp>19</tpx1:atemp><tpx1:cad>83</tpx1:cad></tpx1:TrackPointExtension></extensions></trkpt><trkpt lat="50.492262" lon="5.699766"><time>2026-04-26T15:06:11.000Z</time><ele>286.8</ele><extensions><tpx1:TrackPointExtension><tpx1:atemp>19</tpx1:atemp><tpx1:cad>84</tpx1:cad></tpx1:TrackPointExtension></extensions></trkpt><trkpt lat="50.492266" lon="5.699702"><time>2026-04-26T15:06:12.000Z</time><ele>287.3</ele><extensions><tpx1:TrackPointExtension><tpx1:atemp>19</tpx1:atemp><tpx1:cad>86</tpx1:cad></tpx1:TrackPointExtension></extensions></trkpt><trkpt lat="50.492283" lon="5.699649"><time>2026-04-26T15:06:13.000Z</time><ele>287.8</ele><extensions><tpx1:TrackPointExtension><tpx1:atemp>19</tpx1:atemp><tpx1:cad>86</tpx1:cad></tpx1:TrackPointExtension></extensions></trkpt><trkpt lat="50.492312" lon="5.699604"><time>2026-04-26T15:06:14.000Z</time><ele>288.8</ele><extensions><tpx1:TrackPointExtension><tpx1:atemp>19</tpx1:atemp><tpx1:cad>82</tpx1:cad></tpx1:TrackPointExtension></extensions></trkpt></trkseg></trk></gpx>